ONEWEB-0120             
1 47266U 20100J   25046.37844817 -.00000160  00000+0 -48107-3 0  9998
2 47266  87.8825  87.5935 0001956  91.3804 268.7549 13.12445128200877
ONEWEB-0121             
1 47267U 20100K   25046.51943418 -.00000471  00000+0 -13439-2 0  9996
2 47267  87.8816  87.5430 0002018  99.5215 260.6142 13.12441022200806
ONEWEB-0122             
1 47268U 20100L   25046.51444561  .00000339  00000+0  90817-3 0  9999
2 47268  87.8817  87.5495 0002079  95.7330 264.4036 13.12439131200714
ONEWEB-0123             
1 47269U 20100M   25046.50969847 -.00000254  00000+0 -74065-3 0  9993
2 47269  87.8824  87.5731 0001889  94.7489 265.3856 13.12439756200856
ONEWEB-0124             
1 47270U 20100N   25045.81221445  .00000043  00000+0  85372-4 0  9991
2 47270  87.8822  87.7099 0001848 103.4391 256.6943 13.12439728200646
ONEWEB-0125             
1 47271U 20100P   25046.47564719  .00000333  00000+0  89107-3 0  9990
2 47271  87.8822  87.5389 0001609  99.1527 260.9784 13.12441751200790
ONEWEB-0126             
1 47272U 20100Q   25045.81465827 -.00000074  00000+0 -24082-3 0  9993
2 47272  87.8821  87.6679 0001995  92.8312 267.3045 13.12441224200777
ONEWEB-0127             
1 47273U 20100R   25046.15770863  .00000068  00000+0  15248-3 0  9996
2 47273  87.8823  87.6356 0002018  93.2461 266.8898 13.12441363200841
